{
    "links": {
        "self": "http://www.neowsapp.com/rest/v1/neo/3283898?api_key=iIulBulltgU6a56xZRHN4H3l9WmuAYTsLGpBGhQ2"
    },
    "id": "3283898",
    "neo_reference_id": "3283898",
    "name": "(2005 NB56)",
    "designation": "2005 NB56",
    "nasa_jpl_url": "http://ssd.jpl.nasa.gov/sbdb.cgi?sstr=3283898",
    "absolute_magnitude_h": 22.9,
    "estimated_diameter": {
        "kilometers": {
            "estimated_diameter_min": 0.0699125232,
            "estimated_diameter_max": 0.1563291544
        },
        "meters": {
            "estimated_diameter_min": 69.9125232246,
            "estimated_diameter_max": 156.3291544087
        },
        "miles": {
            "estimated_diameter_min": 0.0434416145,
            "estimated_diameter_max": 0.097138403
        },
        "feet": {
            "estimated_diameter_min": 229.3718026961,
            "estimated_diameter_max": 512.8909429502
        }
    },
    "is_potentially_hazardous_asteroid": false,
    "close_approach_data": [
        {
            "close_approach_date": "2003-02-28",
            "close_approach_date_full": "2003-Feb-28 10:25",
            "epoch_date_close_approach": 1046427900000,
            "relative_velocity": {
                "kilometers_per_second": "16.1313563119",
                "kilometers_per_hour": "58072.8827228962",
                "miles_per_hour": "36084.230934124"
            },
            "miss_distance": {
                "astronomical": "0.1851284093",
                "lunar": "72.0149512177",
                "kilometers": "27694815.707768191",
                "miles": "17208760.4999793958"
            },
            "orbiting_body": "Earth"
        },
        {
            "close_approach_date": "2005-07-02",
            "close_approach_date_full": "2005-Jul-02 03:21",
            "epoch_date_close_approach": 1120274460000,
            "relative_velocity": {
                "kilometers_per_second": "10.6670523072",
                "kilometers_per_hour": "38401.3883060831",
                "miles_per_hour": "23861.129306077"
            },
            "miss_distance": {
                "astronomical": "0.044781643",
                "lunar": "17.420059127",
                "kilometers": "6699238.40790041",
                "miles": "4162713.719069258"
            },
            "orbiting_body": "Earth"
        }
    ],
    "orbital_data": {
        "orbit_id": "8",
        "orbit_determination_date": "2017-04-06 09:10:45",
        "first_observation_date": "2005-07-11",
        "last_observation_date": "2005-07-28",
        "data_arc_in_days": 17,
        "observations_used": 17,
        "orbit_uncertainty": "8",
        "minimum_orbit_intersection": ".0163799",
        "jupiter_tisserand_invariant": "4.153",
        "epoch_osculation": "2453565.5",
        "eccentricity": ".4725128353444195",
        "semi_major_axis": "1.64146194978182",
        "inclination": "6.756250887005159",
        "ascending_node_longitude": "112.3585985082504",
        "orbital_period": "768.1475624898862",
        "perihelion_distance": ".8658501097804332",
        "perihelion_argument": "114.1538770930919",
        "aphelion_distance": "2.417073789783207",
        "perihelion_time": "2453511.782620926074",
        "mean_anomaly": "25.1751843147559",
        "mean_motion": ".4686599523053748",
        "equinox": "J2000",
        "orbit_class": {
            "orbit_class_type": "APO",
            "orbit_class_description": "Near-Earth asteroid orbits which cross the Earth’s orbit similar to that of 1862 Apollo",
            "orbit_class_range": "a (semi-major axis) > 1.0 AU; q (perihelion) < 1.017 AU"
        }
    },
    "is_sentry_object": false
}